{
  "type": "FeatureCollection",
  "features": [
    {
      "type": "Feature",
      "properties": {
        "norad_id": 28054,
        "name": "DMSP 5D-3 F16 (USA 172)",
        "group": "weather",
        "lat": -43.64530214079786,
        "lon": 172.13918199006878,
        "alt_km": 852.2973957849354,
        "timestamp": "2025-12-09T09:46:47.290196+00:00",
        "meta_object_name": "DMSP 5D-3 F16 (USA 172)",
        "meta_object_id": "2003-048A",
        "meta_epoch": "2025-12-08T22:49:21.991008",
        "meta_mean_motion": 14.14422062,
        "meta_eccentricity": 0.00066415,
        "meta_inclination": 99.0048,
        "meta_ra_of_asc_node": 0.3781,
        "meta_arg_of_pericenter": 332.6225,
        "meta_mean_anomaly": 88.3046,
        "meta_ephemeris_type": 0,
        "meta_classification_type": "U",
        "meta_norad_cat_id": 28054,
        "meta_element_set_no": 999,
        "meta_rev_at_epoch": 14259,
        "meta_bstar": 0.00013294748,
        "meta_mean_motion_dot": 2.09e-06,
        "meta_mean_motion_ddot": 0,
        "tle_line1": "1 28054U 03048A   25342.95094897  .00000209  00000+0  13295-3 0  9994",
        "tle_line2": "2 28054  99.0048   0.3781 0006641 332.6225  88.3046 14.14422062142596"
      },
      "geometry": {
        "type": "Point",
        "coordinates": [
          172.13918199006878,
          -43.64530214079786
        ]
      }
    },
    {
      "type": "Feature",
      "properties": {
        "norad_id": 28912,
        "name": "METEOSAT-9 (MSG-2)",
        "group": "weather",
        "lat": -5.094621275943106,
        "lon": -89.57508885814285,
        "alt_km": 35771.226517181596,
        "timestamp": "2025-12-09T09:46:47.290247+00:00",
        "meta_object_name": "METEOSAT-9 (MSG-2)",
        "meta_object_id": "2005-049B",
        "meta_epoch": "2025-12-08T20:40:05.249568",
        "meta_mean_motion": 1.00274262,
        "meta_eccentricity": 0.00038396,
        "meta_inclination": 8.931,
        "meta_ra_of_asc_node": 56.0124,
        "meta_arg_of_pericenter": 190.0622,
        "meta_mean_anomaly": 187.4345,
        "meta_ephemeris_type": 0,
        "meta_classification_type": "U",
        "meta_norad_cat_id": 28912,
        "meta_element_set_no": 999,
        "meta_rev_at_epoch": 509,
        "meta_bstar": 0,
        "meta_mean_motion_dot": 1.23e-06,
        "meta_mean_motion_ddot": 0,
        "tle_line1": "1 28912U 05049B   25342.86117187  .00000123  00000+0  00000+0 0  9999",
        "tle_line2": "2 28912   8.9310  56.0124 0003839 190.0622 187.4345  1.00274262  5096"
      },
      "geometry": {
        "type": "Point",
        "coordinates": [
          -89.57508885814285,
          -5.094621275943106
        ]
      }
    },
    {
      "type": "Feature",
      "properties": {
        "norad_id": 29522,
        "name": "DMSP 5D-3 F17 (USA 191)",
        "group": "weather",
        "lat": 20.9027856688558,
        "lon": 172.23388107583838,
        "alt_km": 840.8802666922047,
        "timestamp": "2025-12-09T09:46:47.290265+00:00",
        "meta_object_name": "DMSP 5D-3 F17 (USA 191)",
        "meta_object_id": "2006-050A",
        "meta_epoch": "2025-12-08T22:50:53.315808",
        "meta_mean_motion": 14.14916948,
        "meta_eccentricity": 0.00092765,
        "meta_inclination": 98.7393,
        "meta_ra_of_asc_node": 348.42,
        "meta_arg_of_pericenter": 236.5892,
        "meta_mean_anomaly": 123.4395,
        "meta_ephemeris_type": 0,
        "meta_classification_type": "U",
        "meta_norad_cat_id": 29522,
        "meta_element_set_no": 999,
        "meta_rev_at_epoch": 98551,
        "meta_bstar": 0.00015613481,
        "meta_mean_motion_dot": 2.58e-06,
        "meta_mean_motion_ddot": 0,
        "tle_line1": "1 29522U 06050A   25342.95200597  .00000258  00000+0  15613-3 0  9997",
        "tle_line2": "2 29522  98.7393 348.4200 0009276 236.5892 123.4395 14.14916948985513"
      },
      "geometry": {
        "type": "Point",
        "coordinates": [
          172.23388107583838,
          20.9027856688558
        ]
      }
    },
    {
      "type": "Feature",
      "properties": {
        "norad_id": 32958,
        "name": "FENGYUN 3A",
        "group": "weather",
        "lat": 2.0945523142101563,
        "lon": 103.32416636970338,
        "alt_km": 834.3026741510384,
        "timestamp": "2025-12-09T09:46:47.290278+00:00",
        "meta_object_name": "FENGYUN 3A",
        "meta_object_id": "2008-026A",
        "meta_epoch": "2025-12-08T19:24:39.976992",
        "meta_mean_motion": 14.19512827,
        "meta_eccentricity": 0.00080792,
        "meta_inclination": 98.6693,
        "meta_ra_of_asc_node": 282.4185,
        "meta_arg_of_pericenter": 322.7735,
        "meta_mean_anomaly": 37.2881,
        "meta_ephemeris_type": 0,
        "meta_classification_type": "U",
        "meta_norad_cat_id": 32958,
        "meta_element_set_no": 999,
        "meta_rev_at_epoch": 90839,
        "meta_bstar": 0.00014393123,
        "meta_mean_motion_dot": 2.6e-06,
        "meta_mean_motion_ddot": 0,
        "tle_line1": "1 32958U 08026A   25342.80879603  .00000260  00000+0  14393-3 0  9990",
        "tle_line2": "2 32958  98.6693 282.4185 0008079 322.7735  37.2881 14.19512827908391"
      },
      "geometry": {
        "type": "Point",
        "coordinates": [
          103.32416636970338,
          2.0945523142101563
        ]
      }
    },
    {
      "type": "Feature",
      "properties": {
        "norad_id": 35491,
        "name": "GOES 14",
        "group": "weather",
        "lat": 0.6344771067148576,
        "lon": 116.74882578024784,
        "alt_km": 35795.09114961081,
        "timestamp": "2025-12-09T09:46:47.290296+00:00",
        "meta_object_name": "GOES 14",
        "meta_object_id": "2009-033A",
        "meta_epoch": "2025-12-09T04:30:43.606080",
        "meta_mean_motion": 1.00273167,
        "meta_eccentricity": 0.0004048,
        "meta_inclination": 1.1903,
        "meta_ra_of_asc_node": 85.4457,
        "meta_arg_of_pericenter": 154.7697,
        "meta_mean_anomaly": 157.3472,
        "meta_ephemeris_type": 0,
        "meta_classification_type": "U",
        "meta_norad_cat_id": 35491,
        "meta_element_set_no": 999,
        "meta_rev_at_epoch": 468,
        "meta_bstar": 0,
        "meta_mean_motion_dot": -6.6e-07,
        "meta_mean_motion_ddot": 0,
        "tle_line1": "1 35491U 09033A   25343.18800470 -.00000066  00000+0  00000+0 0  9993",
        "tle_line2": "2 35491   1.1903  85.4457 0004048 154.7697 157.3472  1.00273167  4680"
      },
      "geometry": {
        "type": "Point",
        "coordinates": [
          116.74882578024784,
          0.6344771067148576
        ]
      }
    },
    {
      "type": "Feature",
      "properties": {
        "norad_id": 35951,
        "name": "DMSP 5D-3 F18 (USA 210)",
        "group": "weather",
        "lat": 27.44363081160593,
        "lon": -44.83355551572074,
        "alt_km": 835.560170089967,
        "timestamp": "2025-12-09T09:46:47.290311+00:00",
        "meta_object_name": "DMSP 5D-3 F18 (USA 210)",
        "meta_object_id": "2009-057A",
        "meta_epoch": "2025-12-08T21:46:03.281088",
        "meta_mean_motion": 14.14765421,
        "meta_eccentricity": 0.00121052,
        "meta_inclination": 98.883,
        "meta_ra_of_asc_node": 319.327,
        "meta_arg_of_pericenter": 72.7402,
        "meta_mean_anomaly": 287.5094,
        "meta_ephemeris_type": 0,
        "meta_classification_type": "U",
        "meta_norad_cat_id": 35951,
        "meta_element_set_no": 999,
        "meta_rev_at_epoch": 83268,
        "meta_bstar": 0.00022833798,
        "meta_mean_motion_dot": 3.96e-06,
        "meta_mean_motion_ddot": 0,
        "tle_line1": "1 35951U 09057A   25342.90698242  .00000396  00000+0  22834-3 0  9999",
        "tle_line2": "2 35951  98.8830 319.3270 0012105  72.7402 287.5094 14.14765421832684"
      },
      "geometry": {
        "type": "Point",
        "coordinates": [
          -44.83355551572074,
          27.44363081160593
        ]
      }
    },
    {
      "type": "Feature",
      "properties": {
        "norad_id": 36411,
        "name": "EWS-G2 (GOES 15)",
        "group": "weather",
        "lat": -0.30002162845028635,
        "lon": -73.44088314318547,
        "alt_km": 35764.555377300654,
        "timestamp": "2025-12-09T09:46:47.290324+00:00",
        "meta_object_name": "EWS-G2 (GOES 15)",
        "meta_object_id": "2010-008A",
        "meta_epoch": "2025-12-09T03:35:36.436992",
        "meta_mean_motion": 1.00268895,
        "meta_eccentricity": 0.0005941,
        "meta_inclination": 0.8051,
        "meta_ra_of_asc_node": 86.0557,
        "meta_arg_of_pericenter": 173.1984,
        "meta_mean_anomaly": 294.2311,
        "meta_ephemeris_type": 0,
        "meta_classification_type": "U",
        "meta_norad_cat_id": 36411,
        "meta_element_set_no": 999,
        "meta_rev_at_epoch": 5773,
        "meta_bstar": 0,
        "meta_mean_motion_dot": 4e-07,
        "meta_mean_motion_ddot": 0,
        "tle_line1": "1 36411U 10008A   25343.14972728  .00000040  00000+0  00000+0 0  9993",
        "tle_line2": "2 36411   0.8051  86.0557 0005941 173.1984 294.2311  1.00268895 57737"
      },
      "geometry": {
        "type": "Point",
        "coordinates": [
          -73.44088314318547,
          -0.30002162845028635
        ]
      }
    }
  ]
}